0 DELTA 1 DEB
1 21353U 75052BX  13282.71976806 -.00000020  00000-0  41849-4 0  3147
2 21353 099.5422 330.2798 0522325 139.8003 339.2813 12.40181968 13409
0 DELTA 1 DEB
1 21353U 75052BX  13285.70458020  .00000003  00000-0  14422-3 0  3159
2 21353 099.5418 332.6379 0522246 133.6719 345.4246 12.40181782 13776
0 DELTA 1 DEB
1 21353U 75052BX  13287.72272007  .00000009  00000-0  17320-3 0  3169
2 21353 099.5412 334.2325 0522189 129.5264 355.7153 12.40182075 14020
0 DELTA 1 DEB
1 21353U 75052BX  13290.70577110 -.00000020  00000-0  36548-4 0  3173
2 21353 099.5402 336.5891 0522093 123.4002 353.9978 12.40182486 14390
0 DELTA 1 DEB
1 21353U 75052BX  13292.96555707 -.00000031  00000-0 -15426-4 0  3187
2 21353 099.5400 338.3742 0522045 118.7537 003.1623 12.40182534 14676
0 DELTA 1 DEB
1 21353U 75052BX  13296.09187944 -.00000039  00000-0 -49582-4 0  3198
2 21353 099.5399 340.8435 0521936 112.3265 281.1120 12.40182560 15069
